NORAD_CAT_ID,OBJECT_NAME,OBJECT_TYPE,EPOCH,MEAN_MOTION,ECCENTRICITY,INCLINATION,RA_OF_ASC_NODE,ARG_OF_PERICENTER,MEAN_ANOMALY,BSTAR,MEAN_MOTION_DOT,MEAN_MOTION_DDOT,TLE_LINE0,TLE_LINE1,TLE_LINE2,SEMIMAJOR_AXIS,PERIOD,APOGEE,PERIGEE,DECAYED
52694.0,STARLINK-4072,PAYLOAD,2024-05-13 14:25:58,15.0883482,0.0001998,53.2156,249.8191,69.6014,290.5192,0.0019856,0.0003145,0.0,0 STARLINK-4072,1 52694U 22053AQ  24134.60137378  .00031450  00000-0  19856-2 0  9991,2 52694  53.2156 249.8191 0001998  69.6014 290.5192 15.08834820110747,6917.896,95.438,541.143,538.379,0.0
52694.0,STARLINK-4072,PAYLOAD,2024-05-13 17:36:44,15.08843179,0.0001964,53.2164,249.2252,68.1183,292.0018,0.0019554,0.00030972,0.0,0 STARLINK-4072,1 52694U 22053AQ  24134.73385260  .00030972  00000-0  19554-2 0  9993,2 52694  53.2164 249.2252 0001964  68.1183 292.0018 15.08843179110361,6917.871,95.437,541.094,538.377,0.0
52694.0,STARLINK-4072,PAYLOAD,2024-05-14 11:05:58,15.08861273,0.000214,53.2169,245.9521,67.6313,292.4905,0.00038102,5.784e-05,0.0,0 STARLINK-4072,1 52694U 22053AQ  24135.46247964  .00005784  00000-0  38102-3 0  9996,2 52694  53.2169 245.9521 0002140  67.6313 292.4905 15.08861273110470,6917.815,95.436,541.161,538.2,0.0
52694.0,STARLINK-4072,PAYLOAD,2024-05-14 14:16:44,15.08856272,0.0002072,53.2165,245.3577,71.9674,288.1544,0.0010471,0.00016423,0.0,0 STARLINK-4072,1 52694U 22053AQ  24135.59496485  .00016423  00000-0  10471-2 0  9994,2 52694  53.2165 245.3577 0002072  71.9674 288.1544 15.08856272110893,6917.831,95.437,541.129,538.262,0.0
52694.0,STARLINK-4072,PAYLOAD,2024-05-14 23:49:03,15.08852878,0.0002031,53.2166,243.5735,66.5661,293.5545,0.00039867,6.065e-05,0.0,0 STARLINK-4072,1 52694U 22053AQ  24135.99239836  .00006065  00000-0  39867-3 0  9995,2 52694  53.2166 243.5735 0002031  66.5661 293.5545 15.08852878110553,6917.841,95.437,541.111,538.301,0.0
52694.0,STARLINK-4072,PAYLOAD,2024-05-15 14:07:30,15.0885904,0.000195,53.2163,240.8957,85.4354,274.6861,4.0274e-05,3.53e-06,0.0,0 STARLINK-4072,1 52694U 22053AQ  24136.58854646  .00000353  00000-0  40274-4 0  9992,2 52694  53.2163 240.8957 0001950  85.4354 274.6861 15.08859040111048,6917.822,95.436,541.036,538.338,0.0
52694.0,STARLINK-4072,PAYLOAD,2024-05-16 12:22:54,15.08844308,0.000212,53.2189,236.7366,92.2715,267.852,-1.1611e-05,-4.73e-06,0.0,0 STARLINK-4072,1 52694U 22053AQ  24137.51591378 -.00000473  00000-0 -11611-4 0  9994,2 52694  53.2189 236.7366 0002120  92.2715 267.8520 15.08844308110788,6917.867,95.437,541.199,538.266,0.0
52694.0,STARLINK-4072,PAYLOAD,2024-05-16 15:33:41,15.08849561,0.0002331,53.2178,236.1396,92.4497,267.6762,0.00012379,1.683e-05,0.0,0 STARLINK-4072,1 52694U 22053AQ  24137.64839238  .00001683  00000-0  12379-3 0  9991,2 52694  53.2178 236.1396 0002331  92.4497 267.6762 15.08849561111206,6917.851,95.437,541.329,538.104,0.0
52694.0,STARLINK-4072,PAYLOAD,2024-05-16 23:30:37,15.08829355,0.0002504,53.2176,234.6534,75.889,284.238,-6.7324e-05,-1.359e-05,0.0,0 STARLINK-4072,1 52694U 22053AQ  24137.97960305 -.00001359  00000-0 -67324-4 0  9990,2 52694  53.2176 234.6534 0002504  75.8890 284.2380 15.08829355110855,6917.913,95.438,541.51,538.046,0.0
52694.0,STARLINK-4072,PAYLOAD,2024-05-17 12:13:43,15.08817043,0.0001787,53.2173,232.2752,88.8156,271.3041,-0.00021771,-3.749e-05,0.0,0 STARLINK-4072,1 52694U 22053AQ  24138.50953063 -.00003749  00000-0 -21771-3 0  9993,2 52694  53.2173 232.2752 0001787  88.8156 271.3041 15.08817043110930,6917.951,95.439,541.052,538.579,0.0
52694.0,STARLINK-4072,PAYLOAD,2024-05-18 05:42:57,15.08843545,9.83e-05,53.2148,229.0015,95.7949,264.3155,0.00041712,6.358e-05,0.0,0 STARLINK-4072,1 52694U 22053AQ  24139.23816589  .00006358  00000-0  41712-3 0  9999,2 52694  53.2148 229.0015 0000983  95.7949 264.3155 15.08843545111049,6917.87,95.437,540.415,539.055,0.0
52694.0,STARLINK-4072,PAYLOAD,2024-05-18 12:04:29,15.08873041,0.0001718,53.2176,227.8148,102.114,258.0044,0.0012948,0.00020397,0.0,0 STARLINK-4072,1 52694U 22053AQ  24139.50311817  .00020397  00000-0  12948-2 0  9990,2 52694  53.2176 227.8148 0001718 102.1140 258.0044 15.08873041111081,6917.779,95.435,540.833,538.456,0.0
52694.0,STARLINK-4072,PAYLOAD,2024-05-18 13:39:52,15.08883463,0.0001363,53.2162,227.5153,97.1207,262.994,0.0014593,0.00023041,0.0,0 STARLINK-4072,1 52694U 22053AQ  24139.56935344  .00023041  00000-0  14593-2 0  9990,2 52694  53.2162 227.5153 0001363  97.1207 262.9940 15.08883463111495,6917.748,95.435,540.555,538.67,0.0
52694.0,STARLINK-4072,PAYLOAD,2024-05-18 23:12:10,15.088616,0.0001319,53.2163,225.7319,108.7597,251.3539,0.00029537,4.419e-05,0.0,0 STARLINK-4072,1 52694U 22053AQ  24139.96679274  .00004419  00000-0  29537-3 0  9994,2 52694  53.2163 225.7319 0001319 108.7597 251.3539 15.08861600111150,6917.814,95.436,540.592,538.767,0.0
52694.0,STARLINK-4072,PAYLOAD,2024-05-19 11:55:16,15.08836776,0.0001414,53.2159,223.3506,116.7576,243.356,-0.00035943,-6.003e-05,0.0,0 STARLINK-4072,1 52694U 22053AQ  24140.49671775 -.00006003  00000-0 -35943-3 0  9993,2 52694  53.2159 223.3506 0001414 116.7576 243.3560 15.08836776111633,6917.89,95.438,540.733,538.777,0.0
52694.0,STARLINK-4072,PAYLOAD,2024-05-20 11:46:03,15.08855133,0.0001339,53.2167,218.8915,103.236,256.8781,0.0009226,0.00014432,0.0,0 STARLINK-4072,1 52694U 22053AQ  24141.49031947  .00014432  00000-0  92260-3 0  9993,2 52694  53.2167 218.8915 0001339 103.2360 256.8781 15.08855133111387,6917.834,95.437,540.625,538.773,0.0
52694.0,STARLINK-4072,PAYLOAD,2024-05-21 05:15:17,15.08848118,0.0001583,53.217,215.618,120.4451,239.6697,0.00037966,5.761e-05,0.0,0 STARLINK-4072,1 52694U 22053AQ  24142.21895786  .00005761  00000-0  37966-3 0  9990,2 52694  53.2170 215.6180 0001583 120.4451 239.6697 15.08848118111495,6917.856,95.437,540.816,538.625,0.0
52694.0,STARLINK-4072,PAYLOAD,2024-05-21 11:36:50,15.08846587,0.0001362,53.2171,214.4289,114.2893,245.8242,0.00028487,4.249e-05,0.0,0 STARLINK-4072,1 52694U 22053AQ  24142.48391775  .00004249  00000-0  28487-3 0  9996,2 52694  53.2171 214.4289 0001362 114.2893 245.8242 15.08846587111931,6917.86,95.437,540.667,538.783,0.0
52694.0,STARLINK-4072,PAYLOAD,2024-05-22 05:06:05,15.0884013,0.000123,53.216,211.1581,108.3973,251.7152,0.00022483,3.292e-05,0.0,0 STARLINK-4072,1 52694U 22053AQ  24143.21256026  .00003292  00000-0  22483-3 0  9994,2 52694  53.2160 211.1581 0001230 108.3973 251.7152 15.08840130111647,6917.88,95.438,540.596,538.894,0.0
52694.0,STARLINK-4072,PAYLOAD,2024-05-22 11:27:37,15.08864599,0.0001333,53.2163,209.9724,109.4223,250.6914,0.00063367,9.818e-05,0.0,0 STARLINK-4072,1 52694U 22053AQ  24143.47751163  .00009818  00000-0  63367-3 0  9990,2 52694  53.2163 209.9724 0001333 109.4223 250.6914 15.08864599111681,6917.805,95.436,540.592,538.748,0.0
52694.0,STARLINK-4072,PAYLOAD,2024-05-23 09:43:00,15.08848424,0.0001683,53.2156,205.8112,120.0688,240.0472,5.0649e-05,5.18e-06,0.0,0 STARLINK-4072,1 52694U 22053AQ  24144.40486887  .00000518  00000-0  50649-4 0  9990,2 52694  53.2156 205.8112 0001683 120.0688 240.0472 15.08848424111828,6917.855,95.437,540.884,538.555,0.0
52694.0,STARLINK-4072,PAYLOAD,2024-05-24 11:09:11,15.08844661,0.0001222,53.2145,201.0517,97.6784,262.4347,0.0001315,1.806e-05,0.0,0 STARLINK-4072,1 52694U 22053AQ  24145.46471167  .00001806  00000-0  13150-3 0  9998,2 52694  53.2145 201.0517 0001222  97.6784 262.4347 15.08844661111983,6917.866,95.437,540.577,538.886,0.0
52694.0,STARLINK-4072,PAYLOAD,2024-05-24 20:41:30,15.08811718,0.0001061,53.2137,199.2597,158.6433,201.4604,-0.00032869,-5.511e-05,0.0,0 STARLINK-4072,1 52694U 22053AQ  24145.86215728 -.00005511  00000-0 -32869-3 0  9998,2 52694  53.2137 199.2597 0001061 158.6433 201.4604 15.08811718112044,6917.967,95.439,540.566,539.098,0.0
52694.0,STARLINK-4072,PAYLOAD,2024-05-25 03:03:03,15.08829212,0.0001956,53.213,198.0722,144.1681,215.9442,5.9385e-05,6.57e-06,0.0,0 STARLINK-4072,1 52694U 22053AQ  24146.12711935  .00000657  00000-0  59385-4 0  9996,2 52694  53.2130 198.0722 0001956 144.1681 215.9442 15.08829212112084,6917.913,95.438,541.132,538.425,0.0
52694.0,STARLINK-4072,PAYLOAD,2024-05-25 10:59:59,15.08831496,0.000139,53.214,196.5897,112.1394,247.9745,0.00013698,1.892e-05,0.0,0 STARLINK-4072,1 52694U 22053AQ  24146.45832209  .00001892  00000-0  13698-3 0  9998,2 52694  53.2140 196.5897 0001390 112.1394 247.9745 15.08831496112537,6917.906,95.438,540.733,538.81,0.0
52694.0,STARLINK-4072,PAYLOAD,2024-05-26 10:50:46,15.08842859,0.0001321,53.2146,192.1327,83.384,276.7302,0.00028688,4.281e-05,0.0,0 STARLINK-4072,1 52694U 22053AQ  24147.45192427  .00004281  00000-0  28688-3 0  9990,2 52694  53.2146 192.1327 0001321  83.3840 276.7302 15.08842859112288,6917.872,95.437,540.651,538.823,0.0
52694.0,STARLINK-4072,PAYLOAD,2024-05-26 20:23:04,15.08842898,0.0001017,53.2152,190.3461,104.1481,255.9625,0.00023997,3.534e-05,0.0,0 STARLINK-4072,1 52694U 22053AQ  24147.84936331  .00003534  00000-0  23997-3 0  9991,2 52694  53.2152 190.3461 0001017 104.1481 255.9625 15.08842898112740,6917.872,95.437,540.44,539.033,0.0
52694.0,STARLINK-4072,PAYLOAD,2024-05-27 09:06:10,15.08843447,0.0001478,53.2151,187.9684,73.6632,286.4523,0.00022775,3.339e-05,0.0,0 STARLINK-4072,1 52694U 22053AQ  24148.37928536  .00003339  00000-0  22775-3 0  9994,2 52694  53.2151 187.9684 0001478  73.6632 286.4523 15.08843447112429,6917.87,95.437,540.757,538.712,0.0
52694.0,STARLINK-4072,PAYLOAD,2024-05-28 08:56:57,15.08843116,0.0001181,53.215,183.5075,107.8521,252.26,-1.9612e-05,-6e-06,0.0,0 STARLINK-4072,1 52694U 22053AQ  24149.37288254 -.00000600  00000-0 -19612-4 0  9998,2 52694  53.2150 183.5075 0001181 107.8521 252.2600 15.08843116112578,6917.871,95.437,540.553,538.919,0.0
52694.0,STARLINK-4072,PAYLOAD,2024-05-29 02:26:13,15.08817192,0.0001341,53.2148,180.2387,63.5111,296.6019,-0.00015864,-2.81e-05,0.0,0 STARLINK-4072,1 52694U 22053AQ  24150.10154565 -.00002810  00000-0 -15864-3 0  9997,2 52694  53.2148 180.2387 0001341  63.5111 296.6019 15.08817192112689,6917.95,95.439,540.743,538.887,0.0
